GLOBALSTAR M084         
1 38040U 11080A   25224.47320525 -.00000107  00000+0 -17640-4 0  9999
2 38040  51.9984 237.1212 0000501 136.7995  27.7200 12.62267924629777
GLOBALSTAR M080         
1 38041U 11080B   25224.76300007 -.00000105  00000+0 -53551-5 0  9995
2 38041  52.0036 237.8511 0000244 298.5194 232.7716 12.62268203629938
GLOBALSTAR M082         
1 38042U 11080C   25224.29631543 -.00000113  00000+0 -52246-4 0  9994
2 38042  52.0054 194.7360 0000442 347.5057 153.0052 12.62267821630581
GLOBALSTAR M092         
1 38043U 11080D   25224.59014017 -.00000085  00000+0  10439-3 0  9993
2 38043  52.0084 284.2253 0000443 125.5853  30.2277 12.62265688629076
GLOBALSTAR M090         
1 38044U 11080E   25224.64654225 -.00000107  00000+0 -19656-4 0  9998
2 38044  52.0104 187.5245 0000429  36.4818 136.7999 12.62261541630744
GLOBALSTAR M086         
1 38045U 11080F   25224.67189152 -.00000102  00000+0  10730-4 0  9992
2 38045  51.9878 187.8787 0001380  82.1063  88.8491 12.62275941630699
GLOBALSTAR M097         
1 39072U 13005A   25224.34445615 -.00000105  00000+0 -45309-5 0  9990
2 39072  52.0048 103.4824 0000839  58.8098 301.2850 12.62265582577908
GLOBALSTAR M093         
1 39073U 13005B   25224.31827951 -.00000086  00000+0  98474-4 0  9992
2 39073  52.0103  96.7899 0001080  52.1368 307.9596 12.62225798577852
